{"type":"FeatureCollection","features":[{"type":"Feature","geometry":{"type":"Polygon","coordinates":[[[14.9999774,51.0258878],[15.0000128,51.025878],[14.9999956,51.0258534],[14.9999601,51.0258633],[14.9999774,51.0258878]]]},"properties":{"voltage":"","name":""}},{"type":"Feature","geometry":{"type":"Point","coordinates":[7.24095,55.0627]},"properties":{"voltage":"320000;155000","name":"SylWin Alpha"}},{"type":"Feature","geometry":{"type":"Point","coordinates":[10.2489207,55.0629914]},"properties":{"voltage":"","name":""}},{"type":"Feature","geometry":{"type":"Point","coordinates":[10.6071708,55.058037]},"properties":{"voltage":"10000;400","name":""}},{"type":"Feature","geometry":{"type":"Point","coordinates":[7.7997687,55.01961]},"properties":{"voltage":"155000","name":""}},{"type":"Feature","geometry":{"type":"Point","coordinates":[10.6137617,55.0595782]},"properties":{"voltage":"10000;400","name":""}},{"type":"Feature","geometry":{"type":"Point","coordinates":[10.6306714,55.0699177]},"properties":{"voltage":"10000;400","name":""}},{"type":"Feature","geometry":{"type":"Point","coordinates":[10.6171331,55.0594339]},"properties":{"voltage":"10000;400","name":""}},{"type":"Feature","geometry":{"type":"Point","coordinates":[10.6378676,55.0721772]},"properties":{"voltage":"10000;400","name":""}},{"type":"Feature","geometry":{"type":"Point","coordinates":[10.5812743,55.0776364]},"properties":{"voltage":"10000;400","name":""}},{"type":"Feature","geometry":{"type":"Point","coordinates":[10.5822406,55.0780874]},"properties":{"voltage":"10000;400","name":""}},{"type":"Feature","geometry":{"type":"Point","coordinates":[10.58168,55.0781147]},"properties":{"voltage":"10000","name":""}},{"type":"Feature","geometry":{"type":"Point","coordinates":[10.5816458,55.0781097]},"properties":{"voltage":"10000;400","name":""}},{"type":"Feature","geometry":{"type":"Point","coordinates":[10.5842603,55.0752214]},"properties":{"voltage":"10000;400","name":""}},{"type":"Feature","geometry":{"type":"Point","coordinates":[10.5815734,55.0743803]},"properties":{"voltage":"10000;400","name":""}},{"type":"Feature","geometry":{"type":"Point","coordinates":[10.6128091,55.0556827]},"properties":{"voltage":"10000;400","name":""}},{"type":"Feature","geometry":{"type":"Point","coordinates":[10.6176739,55.059463]},"properties":{"voltage":"10000;400","name":""}},{"type":"Feature","geometry":{"type":"Point","coordinates":[10.6937782,55.0899889]},"properties":{"voltage":"10000;400","name":""}},{"type":"Feature","geometry":{"type":"Point","coordinates":[10.5143049,55.0716906]},"properties":{"voltage":"10000;400","name":""}},{"type":"Feature","geometry":{"type":"Point","coordinates":[10.6416026,55.0736635]},"properties":{"voltage":"10000;400","name":""}},{"type":"Feature","geometry":{"type":"Point","coordinates":[10.6059279,55.0604146]},"properties":{"voltage":"10000;400","name":""}},{"type":"Feature","geometry":{"type":"Point","coordinates":[10.6975481,55.0790989]},"properties":{"voltage":"10000;400","name":""}},{"type":"Feature","geometry":{"type":"Point","coordinates":[10.7040685,55.0731594]},"properties":{"voltage":"10000;400","name":""}},{"type":"Feature","geometry":{"type":"Point","coordinates":[10.7150793,55.0633096]},"properties":{"voltage":"10000;400","name":""}},{"type":"Feature","geometry":{"type":"Point","coordinates":[10.2504448,55.0951492]},"properties":{"voltage":"10000","name":""}},{"type":"Feature","geometry":{"type":"Point","coordinates":[10.2470422,55.0951301]},"properties":{"voltage":"10000","name":""}},{"type":"Feature","geometry":{"type":"Point","coordinates":[10.4001114,55.0685451]},"properties":{"voltage":"10000","name":""}},{"type":"Feature","geometry":{"type":"Point","coordinates":[10.400192,55.0685457]},"properties":{"voltage":"10000","name":""}},{"type":"Feature","geometry":{"type":"Point","coordinates":[10.3998499,55.0695071]},"properties":{"voltage":"10000","name":""}},{"type":"Feature","geometry":{"type":"Point","coordinates":[10.3999295,55.0695087]},"properties":{"voltage":"10000","name":""}},{"type":"Feature","geometry":{"type":"Point","coordinates":[10.62922,55.07091]},"properties":{"voltage":"10000;400","name":""}},{"type":"Feature","geometry":{"type":"Polygon","coordinates":[[[10.5750716,55.0693282],[10.575882,55.0691043],[10.5758052,55.0690014],[10.5765421,55.0688016],[10.5766694,55.0688052],[10.5770836,55.0692949],[10.5763925,55.0694866],[10.5770747,55.0702865],[10.5767651,55.0705138],[10.5751642,55.0705524],[10.5748139,55.0705204],[10.5748233,55.0704769],[10.5748331,55.0704313],[10.5750694,55.0704364],[10.5751597,55.0704295],[10.5751204,55.0699927],[10.5751071,55.0699651],[10.5750915,55.0699383],[10.5750898,55.06954],[10.5750716,55.0693282]]]},"properties":{"voltage":"150000;60000","name":"F\u00e5borgvej"}},{"type":"Feature","geometry":{"type":"Polygon","coordinates":[[[9.2664555,55.0369361],[9.2666535,55.037256],[9.2670214,55.0375358],[9.2674514,55.0377152],[9.2680061,55.0377538],[9.2697889,55.0379186],[9.2700282,55.0381196],[9.270922,55.0381917],[9.2709678,55.0381944],[9.2711714,55.0383167],[9.2722557,55.0384007],[9.2723703,55.0382233],[9.2730292,55.0358017],[9.2709583,55.0356131],[9.2692134,55.0354705],[9.2683438,55.0354331],[9.2677801,55.0354089],[9.2665963,55.0354131],[9.2663792,55.035412],[9.2663904,55.0356368],[9.2664555,55.0369361]]]},"properties":{"voltage":"400000;150000","name":"400 kV Kass\u00f8"}},{"type":"Feature","geometry":{"type":"Polygon","coordinates":[[[9.4339482,55.0190301],[9.4340857,55.0189947],[9.4340706,55.0189733],[9.4345401,55.0186891],[9.4349894,55.0184373],[9.4349471,55.0183966],[9.4350725,55.0183455],[9.4345085,55.0180071],[9.4344863,55.0179775],[9.4344636,55.01795],[9.4341082,55.0178568],[9.4327026,55.0184546],[9.4327216,55.0184701],[9.4322273,55.0186884],[9.432383,55.0188148],[9.431882,55.0190275],[9.4327337,55.0197056],[9.4333999,55.0194388],[9.4335104,55.0193925],[9.4337502,55.0191462],[9.4339482,55.0190301]]]},"properties":{"voltage":"150000;60000","name":"150/60 kV Enstedv\u00e6rket"}},{"type":"Feature","geometry":{"type":"Polygon","coordinates":[[[8.8357919,55.0530828],[8.8361044,55.0534676],[8.8365684,55.0533524],[8.8369707,55.0538755],[8.8390052,55.0533808],[8.8383507,55.0524882],[8.8357919,55.0530828]]]},"properties":{"voltage":"150000;60000","name":"Bredebro"}},{"type":"Feature","geometry":{"type":"Polygon","coordinates":[[[9.8116119,55.0350724],[9.8120285,55.0349437],[9.8118736,55.0346781],[9.8113902,55.0348312],[9.8114519,55.0348952],[9.8113783,55.0349174],[9.8114818,55.03503],[9.8115554,55.0350078],[9.8116119,55.0350724]]]},"properties":{"voltage":"60000;15000","name":"60/15 kV Danfoss"}},{"type":"Feature","geometry":{"type":"Polygon","coordinates":[[[9.8171196,55.0081439],[9.8170777,55.0081027],[9.8169559,55.0081433],[9.8166812,55.0082399],[9.8169452,55.0084924],[9.8171287,55.0084297],[9.8171785,55.0084761],[9.817212,55.0084643],[9.8172209,55.0084614],[9.8172419,55.0084807],[9.8175363,55.0083797],[9.817247,55.0081012],[9.8171196,55.0081439]]]},"properties":{"voltage":"60000;15000","name":"60/15 kV Stevning"}},{"type":"Feature","geometry":{"type":"Polygon","coordinates":[[[9.6775197,55.0153314],[9.6778665,55.0153456],[9.6778987,55.0150248],[9.6777335,55.015018],[9.6775405,55.0150814],[9.6775197,55.0153314]]]},"properties":{"voltage":"","name":""}},{"type":"Feature","geometry":{"type":"Polygon","coordinates":[[[9.7099995,55.0291977],[9.7104376,55.0291584],[9.7103678,55.0289026],[9.7100142,55.0289343],[9.710052,55.0290715],[9.7099672,55.0290791],[9.709987,55.0291524],[9.7099995,55.0291977]]]},"properties":{"voltage":"60000","name":""}},{"type":"Feature","geometry":{"type":"Polygon","coordinates":[[[9.7505221,55.0495762],[9.7505239,55.0494323],[9.7505851,55.0491973],[9.7512711,55.0492894],[9.7510833,55.0496246],[9.7510702,55.0496369],[9.7509552,55.0496152],[9.7509778,55.0496475],[9.7509473,55.0496445],[9.7505221,55.0495762]]]},"properties":{"voltage":"60000;15000","name":"60/15 kV Nordborg"}},{"type":"Feature","geometry":{"type":"Polygon","coordinates":[[[14.7303251,55.0900056],[14.7303108,55.0898666],[14.730303,55.0897453],[14.7304083,55.0897431],[14.7304074,55.0896893],[14.730407,55.0896681],[14.7308264,55.0896635],[14.7308422,55.0899354],[14.7306456,55.0899958],[14.7303251,55.0900056]]]},"properties":{"voltage":"60000;10000","name":"60kV R\u00f8nne Syd"}},{"type":"Feature","geometry":{"type":"Polygon","coordinates":[[[14.897815,55.0685549],[14.8974397,55.0680817],[14.8975149,55.0680622],[14.8979737,55.0679432],[14.8980208,55.0680006],[14.8983537,55.0684068],[14.898357,55.0684101],[14.8978911,55.0685346],[14.897815,55.0685549]]]},"properties":{"voltage":"60000;10000","name":"60/10 kV \u00c5kirkeby"}},{"type":"Feature","geometry":{"type":"Polygon","coordinates":[[[14.7136963,55.0980115],[14.7138599,55.0978271],[14.7139664,55.0978581],[14.714132,55.0979062],[14.7141532,55.0979124],[14.7139896,55.0980967],[14.7136963,55.0980115]]]},"properties":{"voltage":"60000;10000","name":"60kV Viadukten"}},{"type":"Feature","geometry":{"type":"Polygon","coordinates":[[[14.6957436,55.0928901],[14.6961594,55.0929822],[14.6965536,55.0924788],[14.6964168,55.0923591],[14.696154,55.0923161],[14.6957436,55.0928901]]]},"properties":{"voltage":"60000","name":""}},{"type":"Feature","geometry":{"type":"Polygon","coordinates":[[[9.4404618,55.0034306],[9.4407297,55.0035985],[9.4411533,55.0033762],[9.4408854,55.0032083],[9.4404618,55.0034306]]]},"properties":{"voltage":"","name":""}},{"type":"Feature","geometry":{"type":"Polygon","coordinates":[[[9.5790425,55.0039435],[9.5786607,55.0039255],[9.5786067,55.0043015],[9.5789885,55.0043195],[9.5790425,55.0039435]]]},"properties":{"voltage":"","name":""}},{"type":"Feature","geometry":{"type":"Polygon","coordinates":[[[9.3166432,55.0455244],[9.316906,55.0454884],[9.3170884,55.0459262],[9.3168256,55.0459621],[9.3166432,55.0455244]]]},"properties":{"voltage":"60000","name":""}},{"type":"Feature","geometry":{"type":"Polygon","coordinates":[[[10.5977723,55.0184587],[10.5975299,55.0184939],[10.5974917,55.0184075],[10.5973685,55.018426],[10.5972878,55.0184381],[10.5972431,55.0183362],[10.5971011,55.0180129],[10.5976489,55.0179349],[10.5978732,55.0184433],[10.5977723,55.0184587]]]},"properties":{"voltage":"60000;10000","name":"60/10 kV Bregninge"}},{"type":"Feature","geometry":{"type":"Polygon","coordinates":[[[8.6827992,55.0375294],[8.6820285,55.0374713],[8.6818393,55.0374965],[8.6819445,55.0377968],[8.6821203,55.037822],[8.6823473,55.0378285],[8.6827084,55.0378812],[8.6827992,55.0375294]]]},"properties":{"voltage":"60000;15000","name":"60/15 kV Rejsby Hede"}},{"type":"Feature","geometry":{"type":"Polygon","coordinates":[[[8.6853487,55.0657715],[8.6847658,55.0655987],[8.6846567,55.0657194],[8.6848585,55.0657792],[8.6847926,55.0658521],[8.6849422,55.0658965],[8.6848989,55.0659444],[8.6851303,55.066013],[8.6853487,55.0657715]]]},"properties":{"voltage":"60000","name":""}},{"type":"Feature","geometry":{"type":"Polygon","coordinates":[[[8.7890194,55.0108678],[8.7891304,55.0112277],[8.789582,55.0111868],[8.789559,55.0110951],[8.7896215,55.0110893],[8.7895769,55.0109071],[8.7894774,55.0109152],[8.7894735,55.0108947],[8.7893409,55.010834],[8.7890194,55.0108678]]]},"properties":{"voltage":"60000","name":""}},{"type":"Feature","geometry":{"type":"Polygon","coordinates":[[[8.9579971,55.0514842],[8.9578948,55.0517061],[8.9584656,55.0517952],[8.9585157,55.0516916],[8.9585729,55.0515734],[8.9579971,55.0514842]]]},"properties":{"voltage":"60000","name":""}},{"type":"Feature","geometry":{"type":"Polygon","coordinates":[[[10.8839284,55.0656298],[10.884013,55.0660097],[10.8844429,55.0659719],[10.8848958,55.0659552],[10.8848635,55.0657048],[10.8847264,55.0655679],[10.8846562,55.065545],[10.8845227,55.0655383],[10.8844363,55.0655501],[10.8839284,55.0656298]]]},"properties":{"voltage":"60000;10000","name":"60/10 kV F\u00e6b\u00e6k"}},{"type":"Feature","geometry":{"type":"Polygon","coordinates":[[[10.4361014,55.0644956],[10.436305,55.0650455],[10.4347928,55.0650818],[10.4346472,55.0646558],[10.4361014,55.0644956]]]},"properties":{"voltage":"60000;10000","name":"60/10 kV Vester Skerninge"}},{"type":"Feature","geometry":{"type":"Polygon","coordinates":[[[9.7758054,55.0366248],[9.7757387,55.0366241],[9.7757385,55.0366297],[9.7757102,55.0366294],[9.7757095,55.0366526],[9.7756763,55.0366522],[9.7756739,55.0367283],[9.775703,55.0367287],[9.7757299,55.0369175],[9.7759121,55.0369771],[9.7761866,55.0367076],[9.7761851,55.0366378],[9.7758054,55.0366248]]]},"properties":{"voltage":"60000;15000","name":"60/15 kV Havnbjerg"}},{"type":"Feature","geometry":{"type":"Polygon","coordinates":[[[9.8048231,55.0320489],[9.8048267,55.0322969],[9.8054221,55.032294],[9.8054208,55.0322022],[9.8054159,55.0321022],[9.8053306,55.0321036],[9.8052399,55.0320489],[9.8048231,55.0320489]]]},"properties":{"voltage":"60000;15000","name":"60/15 kV Lunden"}},{"type":"Feature","geometry":{"type":"Polygon","coordinates":[[[9.2939112,55.0233632],[9.2942353,55.023398],[9.2943586,55.0230208],[9.2940345,55.022986],[9.2939112,55.0233632]]]},"properties":{"voltage":"60000","name":""}},{"type":"Feature","geometry":{"type":"Polygon","coordinates":[[[9.0863287,55.0505307],[9.0869134,55.0506848],[9.0870122,55.0505504],[9.0870427,55.0505074],[9.0868797,55.0504695],[9.0868671,55.0504207],[9.0865005,55.0503305],[9.0863287,55.0505307]]]},"properties":{"voltage":"60000","name":""}},{"type":"Feature","geometry":{"type":"Polygon","coordinates":[[[9.3073721,55.0748809],[9.3073433,55.0745192],[9.3078942,55.0745048],[9.3079231,55.0748664],[9.3073721,55.0748809]]]},"properties":{"voltage":"60000","name":""}},{"type":"Feature","geometry":{"type":"Polygon","coordinates":[[[9.2237817,55.0852346],[9.2242752,55.0853684],[9.2243697,55.0852543],[9.2244418,55.0851672],[9.2243616,55.0851455],[9.224326,55.0851884],[9.2239126,55.0850764],[9.2237817,55.0852346]]]},"properties":{"voltage":"60000","name":""}},{"type":"Feature","geometry":{"type":"Polygon","coordinates":[[[9.3496521,55.0637513],[9.3491647,55.0637572],[9.3491603,55.0640136],[9.3493476,55.064056],[9.3492945,55.0640677],[9.3493291,55.0641192],[9.3495444,55.0640718],[9.3496035,55.0640582],[9.3496521,55.0637513]]]},"properties":{"voltage":"60000","name":""}},{"type":"Feature","geometry":{"type":"Polygon","coordinates":[[[9.4322103,55.0674924],[9.4323718,55.0677409],[9.4325276,55.0679883],[9.4325693,55.0679781],[9.4329945,55.0678428],[9.4329979,55.0674944],[9.4322103,55.0674924]]]},"properties":{"voltage":"60000;15000","name":"60/15 kV Vennelyst"}},{"type":"Feature","geometry":{"type":"Polygon","coordinates":[[[9.3814848,55.0638303],[9.3815849,55.0639121],[9.3818091,55.0640778],[9.3823007,55.06387],[9.3819783,55.0636208],[9.3819043,55.0635599],[9.3816253,55.0636227],[9.3815231,55.0636797],[9.381658,55.0637568],[9.3815581,55.0638009],[9.3814848,55.0638303]]]},"properties":{"voltage":"60000;15000","name":"60/15 kV \u00c5benr\u00e5 Nord"}},{"type":"Feature","geometry":{"type":"Polygon","coordinates":[[[11.9501989,55.0453713],[11.9502134,55.0456725],[11.9503424,55.0457501],[11.9509617,55.0457012],[11.9509559,55.0456597],[11.9509133,55.0453565],[11.9501989,55.0453713]]]},"properties":{"voltage":"50000","name":""}},{"type":"Feature","geometry":{"type":"Polygon","coordinates":[[[12.0759465,55.019627],[12.0758751,55.0198327],[12.0760094,55.0198763],[12.0759799,55.0199595],[12.0762554,55.0199916],[12.0765173,55.0200217],[12.0765481,55.0199443],[12.0764517,55.0199299],[12.0765346,55.0197033],[12.0759465,55.019627]]]},"properties":{"voltage":"50000","name":""}},{"type":"Feature","geometry":{"type":"Polygon","coordinates":[[[9.382217,55.07682],[9.3822861,55.076819],[9.3822904,55.0769163],[9.3822948,55.0770033],[9.3817368,55.0769876],[9.3817368,55.0766537],[9.3822008,55.0766444],[9.3822142,55.0767892],[9.382217,55.07682]]]},"properties":{"voltage":"","name":""}},{"type":"Feature","geometry":{"type":"Polygon","coordinates":[[[10.6134709,55.0394423],[10.6134733,55.0394214],[10.6135065,55.0394226],[10.6135041,55.0394436],[10.6134709,55.0394423]]]},"properties":{"voltage":"","name":""}},{"type":"Feature","geometry":{"type":"Polygon","coordinates":[[[10.6119613,55.0392999],[10.6119886,55.0393066],[10.6120014,55.0392894],[10.6119741,55.0392828],[10.6119613,55.0392999]]]},"properties":{"voltage":"","name":""}},{"type":"Feature","geometry":{"type":"Polygon","coordinates":[[[10.5860612,55.0154216],[10.5860914,55.0154297],[10.5861065,55.0154129],[10.5860763,55.0154045],[10.5860612,55.0154216]]]},"properties":{"voltage":"","name":""}},{"type":"Feature","geometry":{"type":"Polygon","coordinates":[[[9.4035894,55.045735],[9.4040363,55.0457362],[9.4041554,55.0457514],[9.4042338,55.0457958],[9.404224,55.0458139],[9.4041839,55.0462028],[9.4042103,55.0462054],[9.4042197,55.0462647],[9.4036067,55.0463338],[9.4035527,55.0463405],[9.4035727,55.0461126],[9.4035894,55.045735]]]},"properties":{"voltage":"60000;15000","name":"60/15 kV \u00c5benr\u00e5 Vest"}},{"type":"Feature","geometry":{"type":"Polygon","coordinates":[[[10.6029094,55.0547603],[10.6028737,55.0547723],[10.6028721,55.0547729],[10.6028566,55.0547578],[10.6028938,55.0547452],[10.6029094,55.0547603]]]},"properties":{"voltage":"10000;400","name":""}},{"type":"Feature","geometry":{"type":"Polygon","coordinates":[[[10.5973779,55.049084],[10.5973966,55.0490632],[10.5974255,55.0490721],[10.597408,55.0490936],[10.5973779,55.049084]]]},"properties":{"voltage":"","name":""}},{"type":"Feature","geometry":{"type":"Polygon","coordinates":[[[10.6076312,55.0579364],[10.6076047,55.0579219],[10.6076343,55.0579042],[10.6076608,55.0579188],[10.6076312,55.0579364]]]},"properties":{"voltage":"10000;400","name":""}},{"type":"Feature","geometry":{"type":"Polygon","coordinates":[[[11.8900039,55.0014385],[11.8897089,55.0015685],[11.8901608,55.0018878],[11.890199,55.0018729],[11.8902399,55.001857],[11.890307,55.0019078],[11.890344,55.0019357],[11.8905917,55.0018238],[11.8904452,55.0017073],[11.8904049,55.0017247],[11.8900039,55.0014385]]]},"properties":{"voltage":"","name":""}},{"type":"Feature","geometry":{"type":"Polygon","coordinates":[[[10.5938406,55.0111388],[10.5938331,55.0111233],[10.5938471,55.0111211],[10.5938618,55.0111187],[10.5938694,55.0111342],[10.5938606,55.0111356],[10.5938406,55.0111388]]]},"properties":{"voltage":"","name":""}},{"type":"Feature","geometry":{"type":"Polygon","coordinates":[[[10.612513,55.0415194],[10.6125117,55.0415482],[10.6124647,55.0415476],[10.6124659,55.0415188],[10.612513,55.0415194]]]},"properties":{"voltage":"","name":""}},{"type":"Feature","geometry":{"type":"Polygon","coordinates":[[[10.6066371,55.043982],[10.606662,55.043998],[10.6066432,55.0440076],[10.6066183,55.0439915],[10.6066371,55.043982]]]},"properties":{"voltage":"","name":""}},{"type":"Feature","geometry":{"type":"Polygon","coordinates":[[[10.5790249,55.0580053],[10.5790232,55.0580229],[10.5789937,55.058022],[10.5789954,55.0580043],[10.5790249,55.0580053]]]},"properties":{"voltage":"","name":""}},{"type":"Feature","geometry":{"type":"Polygon","coordinates":[[[10.5955326,55.0510849],[10.5956311,55.051117],[10.5956709,55.051077],[10.5955724,55.0510449],[10.5955326,55.0510849]]]},"properties":{"voltage":"","name":""}},{"type":"Feature","geometry":{"type":"Polygon","coordinates":[[[10.5686793,55.0205476],[10.5686659,55.0205346],[10.5686436,55.0205422],[10.568657,55.0205552],[10.5686793,55.0205476]]]},"properties":{"voltage":"","name":""}},{"type":"Feature","geometry":{"type":"Polygon","coordinates":[[[10.5833766,55.0064355],[10.5833664,55.0064498],[10.583339,55.0064434],[10.5833492,55.0064291],[10.5833766,55.0064355]]]},"properties":{"voltage":"","name":""}},{"type":"Feature","geometry":{"type":"Polygon","coordinates":[[[10.5633123,55.0088964],[10.5633287,55.008876],[10.5632998,55.0088684],[10.5632834,55.0088888],[10.5633123,55.0088964]]]},"properties":{"voltage":"","name":""}},{"type":"Feature","geometry":{"type":"Polygon","coordinates":[[[10.5755094,55.0088837],[10.5755169,55.0088654],[10.57555,55.0088699],[10.5755425,55.0088881],[10.5755094,55.0088837]]]},"properties":{"voltage":"","name":""}},{"type":"Feature","geometry":{"type":"Polygon","coordinates":[[[10.5563037,55.0067303],[10.5563283,55.0067376],[10.5563425,55.0067218],[10.5563179,55.0067145],[10.5563037,55.0067303]]]},"properties":{"voltage":"","name":""}},{"type":"Feature","geometry":{"type":"Polygon","coordinates":[[[10.2498871,55.0941047],[10.2499356,55.0941106],[10.2499559,55.094057],[10.2499074,55.0940509],[10.2498871,55.0941047]]]},"properties":{"voltage":"10000","name":""}},{"type":"Feature","geometry":{"type":"Polygon","coordinates":[[[10.6151125,55.0628042],[10.6150927,55.0627797],[10.6150496,55.0627912],[10.6150695,55.0628156],[10.6151125,55.0628042]]]},"properties":{"voltage":"10000;400","name":""}},{"type":"Feature","geometry":{"type":"Polygon","coordinates":[[[10.6358375,55.0808512],[10.6358383,55.0808321],[10.6358001,55.0808315],[10.6357993,55.0808507],[10.6358375,55.0808512]]]},"properties":{"voltage":"10000","name":""}},{"type":"Feature","geometry":{"type":"Polygon","coordinates":[[[10.6152874,55.0638186],[10.6152355,55.063783],[10.6151447,55.0638265],[10.6151966,55.0638622],[10.6152874,55.0638186]]]},"properties":{"voltage":"10000;400","name":""}},{"type":"Feature","geometry":{"type":"Polygon","coordinates":[[[10.5897636,55.0637649],[10.5897353,55.0637294],[10.5896945,55.0637402],[10.5897228,55.0637757],[10.5897636,55.0637649]]]},"properties":{"voltage":"10000;400","name":""}},{"type":"Feature","geometry":{"type":"Polygon","coordinates":[[[10.5820297,55.0760287],[10.5820896,55.0760438],[10.5821077,55.0760203],[10.5820478,55.0760052],[10.5820297,55.0760287]]]},"properties":{"voltage":"10000;400","name":""}},{"type":"Feature","geometry":{"type":"Polygon","coordinates":[[[10.5858895,55.0686053],[10.5858454,55.0685922],[10.5858111,55.0686305],[10.5858552,55.0686436],[10.5858895,55.0686053]]]},"properties":{"voltage":"10000;400","name":""}},{"type":"Feature","geometry":{"type":"Polygon","coordinates":[[[10.610713,55.062226],[10.6106839,55.0622446],[10.6107236,55.062265],[10.6107528,55.0622465],[10.610713,55.062226]]]},"properties":{"voltage":"10000;400","name":""}},{"type":"Feature","geometry":{"type":"Polygon","coordinates":[[[10.6009932,55.0363896],[10.600972,55.0363996],[10.6009501,55.0363844],[10.6009687,55.0363756],[10.6009713,55.0363744],[10.6009932,55.0363896]]]},"properties":{"voltage":"","name":""}},{"type":"Feature","geometry":{"type":"Polygon","coordinates":[[[8.3868385,55.0359238],[8.3868617,55.0359117],[8.3868186,55.0358846],[8.3867955,55.0358967],[8.3868385,55.0359238]]]},"properties":{"voltage":"","name":"7.19"}},{"type":"Feature","geometry":{"type":"Polygon","coordinates":[[[11.8565011,55.0503248],[11.8566567,55.0504953],[11.8567613,55.0506966],[11.8572816,55.0507058],[11.8572843,55.0503524],[11.8570751,55.0503217],[11.8565011,55.0503248]]]},"properties":{"voltage":"","name":""}},{"type":"Feature","geometry":{"type":"Polygon","coordinates":[[[10.5879275,55.0224238],[10.5879321,55.0224435],[10.5878991,55.022446],[10.5878946,55.0224263],[10.5879275,55.0224238]]]},"properties":{"voltage":"","name":""}},{"type":"Feature","geometry":{"type":"Polygon","coordinates":[[[9.4244628,55.0439806],[9.4256309,55.0441282],[9.4256765,55.0438316],[9.424888,55.0437801],[9.4244829,55.0437255],[9.4244092,55.0439253],[9.4244628,55.0439806]]]},"properties":{"voltage":"60000;15000","name":"60/15 kV \u00c5benr\u00e5v\u00e6rk"}},{"type":"Feature","geometry":{"type":"Polygon","coordinates":[[[10.5462542,55.0040064],[10.5462673,55.0039907],[10.5462953,55.0039984],[10.5462823,55.0040141],[10.5462542,55.0040064]]]},"properties":{"voltage":"","name":""}},{"type":"Feature","geometry":{"type":"Polygon","coordinates":[[[10.582248,55.0799871],[10.5823043,55.0801529],[10.5826285,55.0801173],[10.582696,55.080283],[10.5829979,55.080242],[10.5827911,55.079713],[10.5822332,55.0797814],[10.5821179,55.0797322],[10.5821754,55.0798628],[10.5822413,55.0798543],[10.5822882,55.0799817],[10.582248,55.0799871]]]},"properties":{"voltage":"60000;10000","name":"Bod\u00f8vej"}},{"type":"Feature","geometry":{"type":"Polygon","coordinates":[[[10.6113139,55.0714378],[10.6114438,55.0714554],[10.6115189,55.0714233],[10.6117243,55.0714516],[10.6116078,55.0717051],[10.6112245,55.0716533],[10.6112278,55.0716483],[10.6113139,55.0714378]]]},"properties":{"voltage":"60000;10000","name":"Porthusvej"}},{"type":"Feature","geometry":{"type":"Polygon","coordinates":[[[10.6007643,55.0589793],[10.6008725,55.0589706],[10.6009202,55.0589668],[10.6010325,55.0589579],[10.6012105,55.0589403],[10.6011757,55.0588247],[10.6011938,55.0588235],[10.6011529,55.0586784],[10.6009027,55.0587014],[10.6006967,55.0587196],[10.6007272,55.0588271],[10.6007643,55.0589793]]]},"properties":{"voltage":"60000;10000","name":"Centrum"}},{"type":"Feature","geometry":{"type":"Polygon","coordinates":[[[10.6252937,55.0613594],[10.6255731,55.0612378],[10.6252356,55.0609835],[10.6249562,55.0611051],[10.6252937,55.0613594]]]},"properties":{"voltage":"60000;10000","name":"Havnen"}},{"type":"Feature","geometry":{"type":"Polygon","coordinates":[[[10.5919371,55.064412],[10.591844,55.0644398],[10.5918841,55.064484],[10.5919773,55.0644562],[10.5919371,55.064412]]]},"properties":{"voltage":"10000;400","name":""}},{"type":"Feature","geometry":{"type":"Polygon","coordinates":[[[10.6081901,55.005724],[10.6081898,55.0057396],[10.6081618,55.0057394],[10.6081622,55.0057238],[10.6081901,55.005724]]]},"properties":{"voltage":"","name":""}},{"type":"Feature","geometry":{"type":"Polygon","coordinates":[[[12.8507155,55.0273621],[12.8506678,55.0273375],[12.8506482,55.0271339],[12.850691,55.0271065],[12.8510454,55.0270952],[12.8510931,55.0271198],[12.8511127,55.0273234],[12.8510699,55.0273508],[12.8507155,55.0273621]]]},"properties":{"voltage":"220000","name":"KFA"}},{"type":"Feature","geometry":{"type":"Polygon","coordinates":[[[12.9452268,55.0486539],[12.9449776,55.0483924],[12.9449956,55.0483571],[12.9453071,55.0482592],[12.9453686,55.0482696],[12.9456178,55.048531],[12.9455998,55.0485663],[12.9452883,55.0486642],[12.9452268,55.0486539]]]},"properties":{"voltage":"220000;33000","name":"KFB"}},{"type":"Feature","geometry":{"type":"Polygon","coordinates":[[[10.4194337,55.0733828],[10.4194517,55.0733966],[10.4194749,55.0733867],[10.4194567,55.0733728],[10.4194337,55.0733828]]]},"properties":{"voltage":"10000","name":""}},{"type":"Feature","geometry":{"type":"Polygon","coordinates":[[[10.249248,55.0959107],[10.2490101,55.0958687],[10.2490508,55.0957932],[10.2487229,55.0957366],[10.2487914,55.0956163],[10.2491012,55.0956718],[10.2493531,55.0957159],[10.249248,55.0959107]]]},"properties":{"voltage":"60000;10000","name":"60/10 kV Faaborg By"}},{"type":"Feature","geometry":{"type":"Polygon","coordinates":[[[10.2493383,55.0950777],[10.249343,55.0950626],[10.2493723,55.0950657],[10.2493675,55.0950808],[10.2493383,55.0950777]]]},"properties":{"voltage":"10000","name":""}},{"type":"Feature","geometry":{"type":"Polygon","coordinates":[[[10.2525061,55.0250333],[10.2525272,55.0250176],[10.2525488,55.0250271],[10.2525277,55.0250428],[10.2525061,55.0250333]]]},"properties":{"voltage":"10000","name":""}},{"type":"Feature","geometry":{"type":"Polygon","coordinates":[[[10.258996,55.0287627],[10.2590181,55.028751],[10.2590402,55.0287646],[10.2590182,55.0287764],[10.258996,55.0287627]]]},"properties":{"voltage":"10000","name":""}},{"type":"Feature","geometry":{"type":"Polygon","coordinates":[[[10.263226,55.0557607],[10.2632394,55.055751],[10.2632585,55.0557598],[10.2632451,55.0557694],[10.263226,55.0557607]]]},"properties":{"voltage":"10000","name":""}},{"type":"Feature","geometry":{"type":"Polygon","coordinates":[[[10.2561089,55.0324487],[10.2561084,55.0324342],[10.2560874,55.0324344],[10.2560879,55.0324489],[10.2561089,55.0324487]]]},"properties":{"voltage":"10000","name":""}},{"type":"Feature","geometry":{"type":"Polygon","coordinates":[[[10.2499535,55.0644504],[10.2499417,55.0644364],[10.2499669,55.0644295],[10.2499787,55.0644435],[10.2499535,55.0644504]]]},"properties":{"voltage":"10000","name":"Trafo #59 Bj\u00f8rn\u00f8"}},{"type":"Feature","geometry":{"type":"Polygon","coordinates":[[[10.2715747,55.0220908],[10.2715958,55.0220852],[10.2715856,55.0220727],[10.2715646,55.0220783],[10.2715747,55.0220908]]]},"properties":{"voltage":"10000","name":""}},{"type":"Feature","geometry":{"type":"Polygon","coordinates":[[[10.4154405,55.0750866],[10.4154414,55.0750676],[10.4154759,55.0750682],[10.4154749,55.0750872],[10.4154405,55.0750866]]]},"properties":{"voltage":"10000","name":""}},{"type":"Feature","geometry":{"type":"Polygon","coordinates":[[[10.3122824,55.012298],[10.3123441,55.0122829],[10.3123215,55.0122525],[10.3122598,55.0122676],[10.3122824,55.012298]]]},"properties":{"voltage":"10000","name":""}},{"type":"Feature","geometry":{"type":"Polygon","coordinates":[[[10.3302621,55.0098471],[10.3303099,55.0098177],[10.3302638,55.0097931],[10.330216,55.0098225],[10.3302621,55.0098471]]]},"properties":{"voltage":"10000","name":""}},{"type":"Feature","geometry":{"type":"Polygon","coordinates":[[[10.2268131,55.0805242],[10.2268231,55.0805068],[10.2268667,55.0805151],[10.2268567,55.0805325],[10.2268131,55.0805242]]]},"properties":{"voltage":"10000","name":""}},{"type":"Feature","geometry":{"type":"Polygon","coordinates":[[[10.2146279,55.0845513],[10.2146521,55.0845445],[10.2146429,55.0845337],[10.2146187,55.0845405],[10.2146279,55.0845513]]]},"properties":{"voltage":"10000","name":""}},{"type":"Feature","geometry":{"type":"Polygon","coordinates":[[[10.217282,55.0724386],[10.2172789,55.0724244],[10.2173003,55.0724229],[10.2173033,55.0724371],[10.217282,55.0724386]]]},"properties":{"voltage":"10000","name":""}},{"type":"Feature","geometry":{"type":"Polygon","coordinates":[[[10.3645066,55.0935561],[10.364515,55.0935416],[10.3644922,55.0935373],[10.3644838,55.0935518],[10.3645066,55.0935561]]]},"properties":{"voltage":"1000","name":""}},{"type":"Feature","geometry":{"type":"Polygon","coordinates":[[[10.3505935,55.0964934],[10.350599,55.096476],[10.35063,55.0964793],[10.3506244,55.0964966],[10.3505935,55.0964934]]]},"properties":{"voltage":"10000","name":""}},{"type":"Feature","geometry":{"type":"Polygon","coordinates":[[[10.3541629,55.0909845],[10.3541786,55.0909738],[10.3541619,55.0909658],[10.3541462,55.0909765],[10.3541629,55.0909845]]]},"properties":{"voltage":"10000","name":""}},{"type":"Feature","geometry":{"type":"Polygon","coordinates":[[[10.3423637,55.0951063],[10.3423644,55.0950909],[10.342391,55.0950913],[10.3423903,55.0951067],[10.3423637,55.0951063]]]},"properties":{"voltage":"10000","name":""}},{"type":"Feature","geometry":{"type":"Polygon","coordinates":[[[10.3271863,55.0939109],[10.3271866,55.0939008],[10.3272097,55.0939011],[10.3272094,55.0939111],[10.3271863,55.0939109]]]},"properties":{"voltage":"10000","name":""}},{"type":"Feature","geometry":{"type":"Polygon","coordinates":[[[10.5846767,55.0273174],[10.5846702,55.0273326],[10.584643,55.0273287],[10.584648,55.0273174],[10.5846496,55.0273135],[10.5846767,55.0273174]]]},"properties":{"voltage":"","name":""}},{"type":"Feature","geometry":{"type":"Polygon","coordinates":[[[11.9063671,55.0462493],[11.9063546,55.0458867],[11.9063848,55.0458563],[11.9070567,55.0458133],[11.9070976,55.0458313],[11.9072119,55.0461575],[11.9071834,55.0462048],[11.9064036,55.0462659],[11.9063671,55.0462493]]]},"properties":{"voltage":"","name":""}},{"type":"Feature","geometry":{"type":"Polygon","coordinates":[[[8.4007058,55.0521707],[8.4007559,55.0521817],[8.4007469,55.0521951],[8.4006969,55.0521841],[8.4007058,55.0521707]]]},"properties":{"voltage":"","name":""}},{"type":"Feature","geometry":{"type":"Polygon","coordinates":[[[8.4023105,55.0329317],[8.4023778,55.032991],[8.4023672,55.032995],[8.4023264,55.0330102],[8.4022591,55.0329509],[8.4023105,55.0329317]]]},"properties":{"voltage":"","name":""}},{"type":"Feature","geometry":{"type":"Polygon","coordinates":[[[10.5700198,55.0016491],[10.5700132,55.0016667],[10.5699828,55.0016629],[10.5699894,55.0016453],[10.5700198,55.0016491]]]},"properties":{"voltage":"","name":""}},{"type":"Feature","geometry":{"type":"Polygon","coordinates":[[[10.5983303,55.0302483],[10.5983049,55.0302527],[10.5982974,55.0302383],[10.5983228,55.0302339],[10.5983303,55.0302483]]]},"properties":{"voltage":"","name":""}},{"type":"Feature","geometry":{"type":"Polygon","coordinates":[[[9.1921657,55.0709416],[9.1921866,55.0709299],[9.1921626,55.0709159],[9.1921418,55.0709277],[9.1921657,55.0709416]]]},"properties":{"voltage":"400","name":""}},{"type":"Feature","geometry":{"type":"Polygon","coordinates":[[[10.4055959,55.0810883],[10.405581,55.0810582],[10.4056347,55.0810495],[10.4056496,55.0810796],[10.4055959,55.0810883]]]},"properties":{"voltage":"10000","name":""}},{"type":"Feature","geometry":{"type":"Polygon","coordinates":[[[10.4078018,55.0815725],[10.4078019,55.0815392],[10.4078586,55.0815392],[10.4078585,55.0815725],[10.4078018,55.0815725]]]},"properties":{"voltage":"10000","name":""}},{"type":"Feature","geometry":{"type":"Polygon","coordinates":[[[10.6445995,55.0881029],[10.6445804,55.0881213],[10.6445088,55.0881905],[10.6444866,55.088212],[10.6441127,55.0880852],[10.6442256,55.0879761],[10.6445995,55.0881029]]]},"properties":{"voltage":"60000","name":""}},{"type":"Feature","geometry":{"type":"Polygon","coordinates":[[[10.6461851,55.0826597],[10.6461851,55.0826383],[10.6462317,55.0826383],[10.6462318,55.0826596],[10.6461851,55.0826597]]]},"properties":{"voltage":"20000","name":""}},{"type":"Feature","geometry":{"type":"Polygon","coordinates":[[[10.6482652,55.0828272],[10.6482652,55.0828057],[10.6483118,55.0828057],[10.6483119,55.0828271],[10.6482652,55.0828272]]]},"properties":{"voltage":"20000","name":""}},{"type":"Feature","geometry":{"type":"Polygon","coordinates":[[[10.6461559,55.0832895],[10.6461559,55.083268],[10.6462025,55.083268],[10.6462026,55.0832894],[10.6461559,55.0832895]]]},"properties":{"voltage":"20000","name":""}},{"type":"Feature","geometry":{"type":"Polygon","coordinates":[[[10.6480558,55.0832802],[10.6480558,55.0832587],[10.6481024,55.0832587],[10.6481025,55.0832801],[10.6480558,55.0832802]]]},"properties":{"voltage":"20000","name":""}},{"type":"Feature","geometry":{"type":"Polygon","coordinates":[[[10.6496809,55.0835395],[10.6496809,55.083518],[10.6497275,55.083518],[10.6497276,55.0835394],[10.6496809,55.0835395]]]},"properties":{"voltage":"20000","name":""}},{"type":"Feature","geometry":{"type":"Polygon","coordinates":[[[10.6447061,55.0834768],[10.6447061,55.0834553],[10.6447527,55.0834553],[10.6447528,55.0834767],[10.6447061,55.0834768]]]},"properties":{"voltage":"20000","name":""}},{"type":"Feature","geometry":{"type":"Polygon","coordinates":[[[10.6457562,55.0838312],[10.6457562,55.0838097],[10.6458028,55.0838097],[10.6458029,55.0838311],[10.6457562,55.0838312]]]},"properties":{"voltage":"20000","name":""}},{"type":"Feature","geometry":{"type":"Polygon","coordinates":[[[10.6476121,55.0839118],[10.6476121,55.0838903],[10.6476587,55.0838903],[10.6476588,55.0839117],[10.6476121,55.0839118]]]},"properties":{"voltage":"20000","name":""}},{"type":"Feature","geometry":{"type":"Polygon","coordinates":[[[10.6491694,55.084263],[10.6491694,55.0842415],[10.649216,55.0842415],[10.6492161,55.0842629],[10.6491694,55.084263]]]},"properties":{"voltage":"20000","name":""}},{"type":"Feature","geometry":{"type":"Polygon","coordinates":[[[10.6489029,55.084624],[10.6489029,55.0846025],[10.6489495,55.0846025],[10.6489496,55.0846239],[10.6489029,55.084624]]]},"properties":{"voltage":"20000","name":""}},{"type":"Feature","geometry":{"type":"Polygon","coordinates":[[[10.6472357,55.0844529],[10.6472357,55.0844314],[10.6472823,55.0844314],[10.6472824,55.0844528],[10.6472357,55.0844529]]]},"properties":{"voltage":"20000","name":""}},{"type":"Feature","geometry":{"type":"Polygon","coordinates":[[[10.6454644,55.0841926],[10.6454644,55.0841711],[10.645511,55.0841711],[10.6455111,55.0841924],[10.6454644,55.0841926]]]},"properties":{"voltage":"20000","name":""}},{"type":"Feature","geometry":{"type":"Polygon","coordinates":[[[10.6438114,55.0846505],[10.6438114,55.084629],[10.643858,55.084629],[10.6438581,55.0846504],[10.6438114,55.0846505]]]},"properties":{"voltage":"20000","name":""}},{"type":"Feature","geometry":{"type":"Polygon","coordinates":[[[10.6449813,55.0849152],[10.6449813,55.0848937],[10.6450279,55.0848937],[10.645028,55.0849151],[10.6449813,55.0849152]]]},"properties":{"voltage":"20000","name":""}},{"type":"Feature","geometry":{"type":"Polygon","coordinates":[[[10.644029,55.0855511],[10.644029,55.0855296],[10.6440756,55.0855296],[10.6440757,55.085551],[10.644029,55.0855511]]]},"properties":{"voltage":"20000","name":""}},{"type":"Feature","geometry":{"type":"Polygon","coordinates":[[[10.6427558,55.0861832],[10.6427558,55.0861617],[10.6428024,55.0861617],[10.6428025,55.0861831],[10.6427558,55.0861832]]]},"properties":{"voltage":"20000","name":""}},{"type":"Feature","geometry":{"type":"Polygon","coordinates":[[[10.6483907,55.0853482],[10.6483907,55.0853267],[10.6484373,55.0853267],[10.6484374,55.0853481],[10.6483907,55.0853482]]]},"properties":{"voltage":"20000","name":""}},{"type":"Feature","geometry":{"type":"Polygon","coordinates":[[[10.6467795,55.0850851],[10.6467795,55.0850636],[10.6468261,55.0850636],[10.6468262,55.085085],[10.6467795,55.0850851]]]},"properties":{"voltage":"20000","name":""}},{"type":"Feature","geometry":{"type":"Polygon","coordinates":[[[10.6421781,55.0869945],[10.6421781,55.086973],[10.6422247,55.086973],[10.6422248,55.0869944],[10.6421781,55.0869945]]]},"properties":{"voltage":"20000","name":""}},{"type":"Feature","geometry":{"type":"Polygon","coordinates":[[[10.6422907,55.087715],[10.6422907,55.0876935],[10.6423373,55.0876935],[10.6423374,55.0877149],[10.6422907,55.087715]]]},"properties":{"voltage":"20000","name":""}},{"type":"Feature","geometry":{"type":"Polygon","coordinates":[[[10.6423179,55.0889904],[10.6423179,55.088969],[10.6423645,55.088969],[10.6423646,55.0889903],[10.6423179,55.0889904]]]},"properties":{"voltage":"20000","name":""}},{"type":"Feature","geometry":{"type":"Polygon","coordinates":[[[10.6437024,55.0887129],[10.6437024,55.0886915],[10.643749,55.0886915],[10.6437491,55.0887128],[10.6437024,55.0887129]]]},"properties":{"voltage":"20000","name":""}},{"type":"Feature","geometry":{"type":"Polygon","coordinates":[[[10.6437135,55.089252],[10.6437135,55.0892306],[10.6437601,55.0892306],[10.6437602,55.0892519],[10.6437135,55.089252]]]},"properties":{"voltage":"20000","name":""}},{"type":"Feature","geometry":{"type":"Polygon","coordinates":[[[10.6454788,55.0892421],[10.6454788,55.0892207],[10.6455254,55.0892207],[10.6455255,55.089242],[10.6454788,55.0892421]]]},"properties":{"voltage":"20000","name":""}},{"type":"Feature","geometry":{"type":"Polygon","coordinates":[[[10.6454933,55.0904138],[10.6454933,55.0903924],[10.6455399,55.0903924],[10.64554,55.0904137],[10.6454933,55.0904138]]]},"properties":{"voltage":"20000","name":""}},{"type":"Feature","geometry":{"type":"Polygon","coordinates":[[[10.6437219,55.0898825],[10.6437219,55.0898611],[10.6437685,55.0898611],[10.6437686,55.0898824],[10.6437219,55.0898825]]]},"properties":{"voltage":"20000","name":""}},{"type":"Feature","geometry":{"type":"Polygon","coordinates":[[[10.6473114,55.0894136],[10.6473114,55.0893922],[10.647358,55.0893922],[10.6473581,55.0894135],[10.6473114,55.0894136]]]},"properties":{"voltage":"20000","name":""}},{"type":"Feature","geometry":{"type":"Polygon","coordinates":[[[10.6473181,55.0898651],[10.6473181,55.0898437],[10.6473647,55.0898437],[10.6473648,55.089865],[10.6473181,55.0898651]]]},"properties":{"voltage":"20000","name":""}},{"type":"Feature","geometry":{"type":"Polygon","coordinates":[[[10.6473279,55.0903133],[10.6473279,55.0902919],[10.6473745,55.0902919],[10.6473746,55.0903132],[10.6473279,55.0903133]]]},"properties":{"voltage":"20000","name":""}},{"type":"Feature","geometry":{"type":"Polygon","coordinates":[[[10.6473302,55.0909436],[10.6473302,55.0909222],[10.6473768,55.0909222],[10.6473769,55.0909435],[10.6473302,55.0909436]]]},"properties":{"voltage":"20000","name":""}},{"type":"Feature","geometry":{"type":"Polygon","coordinates":[[[10.6454875,55.0897838],[10.6454875,55.0897624],[10.6455341,55.0897624],[10.6455342,55.0897837],[10.6454875,55.0897838]]]},"properties":{"voltage":"20000","name":""}},{"type":"Feature","geometry":{"type":"Polygon","coordinates":[[[10.6487964,55.0918652],[10.6487964,55.0918438],[10.648843,55.0918438],[10.6488431,55.0918651],[10.6487964,55.0918652]]]},"properties":{"voltage":"20000","name":""}},{"type":"Feature","geometry":{"type":"Polygon","coordinates":[[[10.6488252,55.0919557],[10.6488252,55.0919343],[10.6488718,55.0919343],[10.6488719,55.0919556],[10.6488252,55.0919557]]]},"properties":{"voltage":"20000","name":""}},{"type":"Feature","geometry":{"type":"Polygon","coordinates":[[[10.6503536,55.0923979],[10.6503536,55.0923765],[10.6504002,55.0923765],[10.6504003,55.0923978],[10.6503536,55.0923979]]]},"properties":{"voltage":"20000","name":""}},{"type":"Feature","geometry":{"type":"Polygon","coordinates":[[[10.6483727,55.0926779],[10.6483727,55.0926565],[10.6484193,55.0926565],[10.6484194,55.0926778],[10.6483727,55.0926779]]]},"properties":{"voltage":"20000","name":""}},{"type":"Feature","geometry":{"type":"Polygon","coordinates":[[[10.6504512,55.0929382],[10.6504512,55.0929168],[10.6504978,55.0929168],[10.6504979,55.0929381],[10.6504512,55.0929382]]]},"properties":{"voltage":"20000","name":""}},{"type":"Feature","geometry":{"type":"Polygon","coordinates":[[[10.647975,55.0933106],[10.647975,55.0932892],[10.6480216,55.0932892],[10.6480217,55.0933105],[10.647975,55.0933106]]]},"properties":{"voltage":"20000","name":""}},{"type":"Feature","geometry":{"type":"Polygon","coordinates":[[[10.6496656,55.093481],[10.6496656,55.0934596],[10.6497122,55.0934596],[10.6497123,55.0934809],[10.6496656,55.093481]]]},"properties":{"voltage":"20000","name":""}},{"type":"Feature","geometry":{"type":"Polygon","coordinates":[[[8.6808708,55.0281701],[8.6808703,55.0281531],[8.6809051,55.0281528],[8.6809056,55.0281698],[8.6808708,55.0281701]]]},"properties":{"voltage":"690;15000","name":""}},{"type":"Feature","geometry":{"type":"Polygon","coordinates":[[[8.6768497,55.0281123],[8.6768435,55.0280935],[8.6768846,55.0280891],[8.6768908,55.0281078],[8.6768497,55.0281123]]]},"properties":{"voltage":"690;15000","name":""}},{"type":"Feature","geometry":{"type":"Polygon","coordinates":[[[8.6727881,55.0280918],[8.6727831,55.0280703],[8.6728271,55.0280669],[8.6728322,55.0280885],[8.6727881,55.0280918]]]},"properties":{"voltage":"690;15000","name":""}},{"type":"Feature","geometry":{"type":"Polygon","coordinates":[[[8.6687263,55.0281306],[8.6687266,55.0281086],[8.6687556,55.0281087],[8.6687553,55.0281307],[8.6687263,55.0281306]]]},"properties":{"voltage":"690;15000","name":""}},{"type":"Feature","geometry":{"type":"Polygon","coordinates":[[[8.6803735,55.0304889],[8.680373,55.0304719],[8.6804078,55.0304715],[8.6804083,55.0304885],[8.6803735,55.0304889]]]},"properties":{"voltage":"690;15000","name":""}},{"type":"Feature","geometry":{"type":"Polygon","coordinates":[[[8.6763043,55.0304666],[8.6763042,55.0304391],[8.6763387,55.0304391],[8.6763388,55.0304666],[8.6763043,55.0304666]]]},"properties":{"voltage":"690;15000","name":""}},{"type":"Feature","geometry":{"type":"Polygon","coordinates":[[[8.6722367,55.0304442],[8.6722364,55.0304165],[8.6722711,55.0304164],[8.6722713,55.0304441],[8.6722367,55.0304442]]]},"properties":{"voltage":"690;15000","name":""}},{"type":"Feature","geometry":{"type":"Polygon","coordinates":[[[8.668167,55.0304147],[8.6681673,55.0303895],[8.6682019,55.0303896],[8.6682015,55.0304148],[8.668167,55.0304147]]]},"properties":{"voltage":"690;15000","name":""}},{"type":"Feature","geometry":{"type":"Polygon","coordinates":[[[8.6642146,55.0303921],[8.6642211,55.0303752],[8.6642576,55.0303799],[8.6642514,55.0303967],[8.6642146,55.0303921]]]},"properties":{"voltage":"690;15000","name":""}},{"type":"Feature","geometry":{"type":"Polygon","coordinates":[[[8.6759172,55.0327917],[8.675933,55.0327761],[8.6759617,55.0327856],[8.675946,55.0328012],[8.6759172,55.0327917]]]},"properties":{"voltage":"690;15000","name":""}},{"type":"Feature","geometry":{"type":"Polygon","coordinates":[[[8.6718029,55.0327913],[8.671799,55.0327717],[8.6718434,55.0327688],[8.6718473,55.0327884],[8.6718029,55.0327913]]]},"properties":{"voltage":"690;15000","name":""}},{"type":"Feature","geometry":{"type":"Polygon","coordinates":[[[8.667673,55.0327326],[8.6676704,55.0327152],[8.6677047,55.0327135],[8.6677074,55.0327309],[8.667673,55.0327326]]]},"properties":{"voltage":"690;15000","name":""}},{"type":"Feature","geometry":{"type":"Polygon","coordinates":[[[8.6636067,55.0327189],[8.6635941,55.0326924],[8.6636261,55.0326874],[8.6636387,55.0327139],[8.6636067,55.0327189]]]},"properties":{"voltage":"690;15000","name":""}},{"type":"Feature","geometry":{"type":"Polygon","coordinates":[[[8.6595852,55.0326543],[8.659568,55.0326382],[8.6595924,55.0326296],[8.6596096,55.0326457],[8.6595852,55.0326543]]]},"properties":{"voltage":"690;15000","name":""}},{"type":"Feature","geometry":{"type":"Polygon","coordinates":[[[8.6754267,55.0351109],[8.6754344,55.0350889],[8.6754665,55.0350926],[8.6754588,55.0351146],[8.6754267,55.0351109]]]},"properties":{"voltage":"690;15000","name":""}},{"type":"Feature","geometry":{"type":"Polygon","coordinates":[[[8.6672202,55.0350186],[8.6672184,55.0349987],[8.6672676,55.0349972],[8.6672694,55.0350171],[8.6672202,55.0350186]]]},"properties":{"voltage":"690;15000","name":""}},{"type":"Feature","geometry":{"type":"Polygon","coordinates":[[[8.6631965,55.0350639],[8.663179,55.0350467],[8.6632234,55.035032],[8.6632408,55.0350492],[8.6631965,55.0350639]]]},"properties":{"voltage":"690;15000","name":""}},{"type":"Feature","geometry":{"type":"Polygon","coordinates":[[[8.6590657,55.0350188],[8.6590506,55.0350046],[8.6590837,55.0349931],[8.6590988,55.0350073],[8.6590657,55.0350188]]]},"properties":{"voltage":"690;15000","name":""}},{"type":"Feature","geometry":{"type":"Polygon","coordinates":[[[8.6789481,55.0374075],[8.6789576,55.0373877],[8.6789973,55.0373938],[8.6789878,55.0374137],[8.6789481,55.0374075]]]},"properties":{"voltage":"690;15000","name":""}},{"type":"Feature","geometry":{"type":"Polygon","coordinates":[[[8.6748681,55.0373842],[8.6748685,55.0373632],[8.6749172,55.0373635],[8.6749168,55.0373845],[8.6748681,55.0373842]]]},"properties":{"voltage":"690;15000","name":""}},{"type":"Feature","geometry":{"type":"Polygon","coordinates":[[[8.6708689,55.0373862],[8.67085,55.0373632],[8.6708807,55.0373549],[8.6708996,55.0373779],[8.6708689,55.0373862]]]},"properties":{"voltage":"690;15000","name":""}},{"type":"Feature","geometry":{"type":"Polygon","coordinates":[[[8.6666918,55.0373909],[8.6667056,55.0373747],[8.666752,55.0373877],[8.6667382,55.0374039],[8.6666918,55.0373909]]]},"properties":{"voltage":"690;15000","name":""}},{"type":"Feature","geometry":{"type":"Polygon","coordinates":[[[8.6626225,55.0373661],[8.6625973,55.037342],[8.6626276,55.0373316],[8.6626529,55.0373556],[8.6626225,55.0373661]]]},"properties":{"voltage":"690;15000","name":""}},{"type":"Feature","geometry":{"type":"Polygon","coordinates":[[[8.6586599,55.0373465],[8.6586399,55.037331],[8.6586617,55.0373217],[8.6586818,55.0373372],[8.6586599,55.0373465]]]},"properties":{"voltage":"690;15000","name":""}},{"type":"Feature","geometry":{"type":"Polygon","coordinates":[[[8.6743949,55.039775],[8.6743813,55.0397546],[8.6744265,55.0397465],[8.6744399,55.0397664],[8.6743949,55.039775]]]},"properties":{"voltage":"690;15000","name":""}},{"type":"Feature","geometry":{"type":"Polygon","coordinates":[[[8.6703366,55.0397455],[8.6703229,55.0397278],[8.6703496,55.039721],[8.6703634,55.0397387],[8.6703366,55.0397455]]]},"properties":{"voltage":"690;15000","name":""}},{"type":"Feature","geometry":{"type":"Polygon","coordinates":[[[8.6662125,55.039659],[8.6661998,55.0396421],[8.6662428,55.0396314],[8.6662556,55.0396483],[8.6662125,55.039659]]]},"properties":{"voltage":"690;15000","name":""}},{"type":"Feature","geometry":{"type":"Polygon","coordinates":[[[8.6622035,55.0396933],[8.6621899,55.0396755],[8.6622178,55.0396686],[8.6622313,55.0396863],[8.6622035,55.0396933]]]},"properties":{"voltage":"690;15000","name":""}},{"type":"Feature","geometry":{"type":"Polygon","coordinates":[[[8.6779295,55.042052],[8.6779168,55.0420328],[8.6779461,55.0420264],[8.6779588,55.0420456],[8.6779295,55.042052]]]},"properties":{"voltage":"690;15000","name":""}},{"type":"Feature","geometry":{"type":"Polygon","coordinates":[[[8.6738277,55.0420744],[8.6738101,55.0420518],[8.6738413,55.0420438],[8.6738589,55.0420664],[8.6738277,55.0420744]]]},"properties":{"voltage":"690;15000","name":""}},{"type":"Feature","geometry":{"type":"Polygon","coordinates":[[[8.6698705,55.0420215],[8.6698506,55.0419978],[8.6698804,55.0419896],[8.6699002,55.0420133],[8.6698705,55.0420215]]]},"properties":{"voltage":"690;15000","name":""}},{"type":"Feature","geometry":{"type":"Polygon","coordinates":[[[8.6657125,55.0420327],[8.6657216,55.0420148],[8.6657532,55.0420201],[8.6657441,55.042038],[8.6657125,55.0420327]]]},"properties":{"voltage":"690;15000","name":""}},{"type":"Feature","geometry":{"type":"Polygon","coordinates":[[[8.6774257,55.0443618],[8.6774132,55.044342],[8.6774577,55.0443328],[8.6774702,55.0443526],[8.6774257,55.0443618]]]},"properties":{"voltage":"690;15000","name":""}},{"type":"Feature","geometry":{"type":"Polygon","coordinates":[[[8.6733831,55.0444073],[8.6733775,55.0443879],[8.6734223,55.0443837],[8.6734279,55.044403],[8.6733831,55.0444073]]]},"properties":{"voltage":"690;15000","name":""}},{"type":"Feature","geometry":{"type":"Polygon","coordinates":[[[8.6693663,55.0443557],[8.6693683,55.0443287],[8.6694033,55.0443295],[8.6694014,55.0443566],[8.6693663,55.0443557]]]},"properties":{"voltage":"690;15000","name":""}},{"type":"Feature","geometry":{"type":"Polygon","coordinates":[[[8.6652132,55.0443502],[8.6651975,55.0443369],[8.6652275,55.0443253],[8.6652432,55.0443385],[8.6652132,55.0443502]]]},"properties":{"voltage":"690;15000","name":""}},{"type":"Feature","geometry":{"type":"Polygon","coordinates":[[[8.6769903,55.0466865],[8.676992,55.0466639],[8.6770388,55.0466651],[8.677037,55.0466877],[8.6769903,55.0466865]]]},"properties":{"voltage":"690;15000","name":""}},{"type":"Feature","geometry":{"type":"Polygon","coordinates":[[[8.672818,55.0466931],[8.6728175,55.0466731],[8.6728505,55.0466728],[8.672851,55.0466929],[8.672818,55.0466931]]]},"properties":{"voltage":"690;15000","name":""}},{"type":"Feature","geometry":{"type":"Polygon","coordinates":[[[8.6688045,55.0466365],[8.668802,55.0466135],[8.6688327,55.0466124],[8.6688352,55.0466354],[8.6688045,55.0466365]]]},"properties":{"voltage":"690;15000","name":""}},{"type":"Feature","geometry":{"type":"Polygon","coordinates":[[[8.6648009,55.0466407],[8.6647917,55.0466133],[8.6648269,55.0466094],[8.6648361,55.0466369],[8.6648009,55.0466407]]]},"properties":{"voltage":"690;15000","name":""}},{"type":"Feature","geometry":{"type":"Polygon","coordinates":[[[9.2725899,55.0314051],[9.2727037,55.0313003],[9.2726,55.0312633],[9.2728347,55.0310471],[9.2729448,55.0310864],[9.2730523,55.0309874],[9.2738871,55.0312852],[9.2734309,55.0317052],[9.2725899,55.0314051]]]},"properties":{"voltage":"","name":""}},{"type":"Feature","geometry":{"type":"Polygon","coordinates":[[[9.4148418,55.0346136],[9.4148607,55.0344793],[9.4147426,55.0344794],[9.4147477,55.0343184],[9.4151018,55.0343447],[9.4151648,55.0342429],[9.4153347,55.0342509],[9.4153274,55.034286],[9.415433,55.0342914],[9.4153104,55.0346481],[9.4148418,55.0346136]]]},"properties":{"voltage":"60000;15000","name":"60/15 kV \u00c5benr\u00e5 Syd"}},{"type":"Feature","geometry":{"type":"Polygon","coordinates":[[[9.827504,55.0090293],[9.8275036,55.0090057],[9.8275533,55.0090054],[9.8275538,55.009029],[9.827504,55.0090293]]]},"properties":{"voltage":"20000","name":""}},{"type":"Feature","geometry":{"type":"Polygon","coordinates":[[[9.828148,55.0097241],[9.8281476,55.0097005],[9.8281973,55.0097002],[9.8281977,55.0097238],[9.828148,55.0097241]]]},"properties":{"voltage":"20000","name":""}},{"type":"Feature","geometry":{"type":"Polygon","coordinates":[[[9.8289721,55.0106131],[9.8289716,55.0105895],[9.8290213,55.0105892],[9.8290218,55.0106128],[9.8289721,55.0106131]]]},"properties":{"voltage":"20000","name":""}},{"type":"Feature","geometry":{"type":"Polygon","coordinates":[[[9.8256414,55.0101859],[9.825641,55.0101624],[9.8256907,55.0101621],[9.8256911,55.0101856],[9.8256414,55.0101859]]]},"properties":{"voltage":"20000","name":""}},{"type":"Feature","geometry":{"type":"Polygon","coordinates":[[[9.8256391,55.0106812],[9.8256387,55.0106576],[9.8256884,55.0106573],[9.8256888,55.0106809],[9.8256391,55.0106812]]]},"properties":{"voltage":"20000","name":""}},{"type":"Feature","geometry":{"type":"Polygon","coordinates":[[[9.827979,55.0111063],[9.8279786,55.0110827],[9.8280283,55.0110824],[9.8280287,55.011106],[9.827979,55.0111063]]]},"properties":{"voltage":"20000","name":""}},{"type":"Feature","geometry":{"type":"Polygon","coordinates":[[[9.8271522,55.0102153],[9.8271517,55.0101917],[9.8272015,55.0101914],[9.8272019,55.010215],[9.8271522,55.0102153]]]},"properties":{"voltage":"20000","name":""}},{"type":"Feature","geometry":{"type":"Polygon","coordinates":[[[9.8256363,55.0111743],[9.8256358,55.0111508],[9.8256856,55.0111505],[9.825686,55.011174],[9.8256363,55.0111743]]]},"properties":{"voltage":"20000","name":""}},{"type":"Feature","geometry":{"type":"Polygon","coordinates":[[[9.8260733,55.0116728],[9.8260729,55.0116492],[9.8261226,55.0116489],[9.826123,55.0116725],[9.8260733,55.0116728]]]},"properties":{"voltage":"20000","name":""}},{"type":"Feature","geometry":{"type":"Polygon","coordinates":[[[9.826075,55.0118687],[9.8260746,55.0118451],[9.8261243,55.0118448],[9.8261247,55.0118684],[9.826075,55.0118687]]]},"properties":{"voltage":"20000","name":""}},{"type":"Feature","geometry":{"type":"Polygon","coordinates":[[[9.8270254,55.0121662],[9.827025,55.0121427],[9.8270747,55.0121424],[9.8270751,55.0121659],[9.8270254,55.0121662]]]},"properties":{"voltage":"20000","name":""}},{"type":"Feature","geometry":{"type":"Polygon","coordinates":[[[9.8270206,55.0129548],[9.8270202,55.0129312],[9.8270699,55.0129309],[9.8270703,55.0129545],[9.8270206,55.0129548]]]},"properties":{"voltage":"20000","name":""}},{"type":"Feature","geometry":{"type":"Polygon","coordinates":[[[9.8283407,55.0135508],[9.8283402,55.0135273],[9.8283899,55.013527],[9.8283904,55.0135505],[9.8283407,55.0135508]]]},"properties":{"voltage":"20000","name":""}},{"type":"Feature","geometry":{"type":"Polygon","coordinates":[[[9.8270123,55.0137471],[9.8270118,55.0137235],[9.8270616,55.0137232],[9.827062,55.0137468],[9.8270123,55.0137471]]]},"properties":{"voltage":"20000","name":""}},{"type":"Feature","geometry":{"type":"Polygon","coordinates":[[[9.8256166,55.0130519],[9.8256162,55.0130283],[9.8256659,55.013028],[9.8256663,55.0130516],[9.8256166,55.0130519]]]},"properties":{"voltage":"20000","name":""}},{"type":"Feature","geometry":{"type":"Polygon","coordinates":[[[9.8242847,55.0131487],[9.8242842,55.0131251],[9.824334,55.0131248],[9.8243344,55.0131484],[9.8242847,55.0131487]]]},"properties":{"voltage":"20000","name":""}},{"type":"Feature","geometry":{"type":"Polygon","coordinates":[[[9.8256183,55.013844],[9.8256179,55.0138204],[9.8256676,55.0138201],[9.825668,55.0138437],[9.8256183,55.013844]]]},"properties":{"voltage":"20000","name":""}},{"type":"Feature","geometry":{"type":"Polygon","coordinates":[[[9.8242765,55.013943],[9.824276,55.0139194],[9.8243257,55.0139191],[9.8243262,55.0139427],[9.8242765,55.013943]]]},"properties":{"voltage":"20000","name":""}},{"type":"Feature","geometry":{"type":"Polygon","coordinates":[[[9.8243022,55.0114705],[9.8243018,55.0114469],[9.8243515,55.0114466],[9.8243519,55.0114702],[9.8243022,55.0114705]]]},"properties":{"voltage":"20000","name":""}},{"type":"Feature","geometry":{"type":"Polygon","coordinates":[[[9.8242927,55.0124593],[9.8242923,55.0124358],[9.824342,55.0124355],[9.8243424,55.012459],[9.8242927,55.0124593]]]},"properties":{"voltage":"20000","name":""}},{"type":"Feature","geometry":{"type":"Polygon","coordinates":[[[9.8227639,55.0133442],[9.8227635,55.0133206],[9.8228132,55.0133203],[9.8228136,55.0133439],[9.8227639,55.0133442]]]},"properties":{"voltage":"20000","name":""}},{"type":"Feature","geometry":{"type":"Polygon","coordinates":[[[9.8231802,55.0133172],[9.8231792,55.0131934],[9.82358,55.0131923],[9.8235802,55.0132135],[9.8235808,55.0132936],[9.823581,55.0133161],[9.8231802,55.0133172]]]},"properties":{"voltage":"60000;20000","name":""}},{"type":"Feature","geometry":{"type":"Polygon","coordinates":[[[9.8228879,55.0140382],[9.8228875,55.0140147],[9.8229372,55.0140144],[9.8229376,55.0140379],[9.8228879,55.0140382]]]},"properties":{"voltage":"20000","name":""}},{"type":"Feature","geometry":{"type":"Polygon","coordinates":[[[9.8228942,55.0123617],[9.8228938,55.0123381],[9.8229435,55.0123378],[9.8229439,55.0123614],[9.8228942,55.0123617]]]},"properties":{"voltage":"20000","name":""}},{"type":"Feature","geometry":{"type":"Polygon","coordinates":[[[9.8228966,55.0115669],[9.8228962,55.0115433],[9.8229459,55.011543],[9.8229463,55.0115666],[9.8228966,55.0115669]]]},"properties":{"voltage":"20000","name":""}},{"type":"Feature","geometry":{"type":"Polygon","coordinates":[[[9.8228977,55.0110738],[9.8228972,55.0110502],[9.8229469,55.0110499],[9.8229474,55.0110735],[9.8228977,55.0110738]]]},"properties":{"voltage":"20000","name":""}},{"type":"Feature","geometry":{"type":"Polygon","coordinates":[[[9.8215886,55.0095905],[9.8215882,55.0095669],[9.8216379,55.0095666],[9.8216384,55.0095902],[9.8215886,55.0095905]]]},"properties":{"voltage":"20000","name":""}},{"type":"Feature","geometry":{"type":"Polygon","coordinates":[[[9.8215798,55.0101821],[9.8215794,55.0101585],[9.8216291,55.0101582],[9.8216295,55.0101818],[9.8215798,55.0101821]]]},"properties":{"voltage":"20000","name":""}},{"type":"Feature","geometry":{"type":"Polygon","coordinates":[[[9.821572,55.0106768],[9.8215716,55.0106532],[9.8216213,55.0106529],[9.8216217,55.0106765],[9.821572,55.0106768]]]},"properties":{"voltage":"20000","name":""}},{"type":"Feature","geometry":{"type":"Polygon","coordinates":[[[9.8220029,55.0116657],[9.8220025,55.0116422],[9.8220522,55.0116419],[9.8220527,55.0116654],[9.8220029,55.0116657]]]},"properties":{"voltage":"20000","name":""}},{"type":"Feature","geometry":{"type":"Polygon","coordinates":[[[9.8210683,55.0138368],[9.8210679,55.0138132],[9.8211176,55.0138129],[9.821118,55.0138365],[9.8210683,55.0138368]]]},"properties":{"voltage":"20000","name":""}},{"type":"Feature","geometry":{"type":"Polygon","coordinates":[[[9.821196,55.0129451],[9.8211956,55.0129215],[9.8212453,55.0129212],[9.8212457,55.0129448],[9.821196,55.0129451]]]},"properties":{"voltage":"20000","name":""}},{"type":"Feature","geometry":{"type":"Polygon","coordinates":[[[9.8193449,55.0129435],[9.8193444,55.0129199],[9.8193941,55.0129196],[9.8193946,55.0129432],[9.8193449,55.0129435]]]},"properties":{"voltage":"20000","name":""}},{"type":"Feature","geometry":{"type":"Polygon","coordinates":[[[9.8196916,55.0139343],[9.8196912,55.0139107],[9.8197409,55.0139104],[9.8197413,55.0139339],[9.8196916,55.0139343]]]},"properties":{"voltage":"20000","name":""}},{"type":"Feature","geometry":{"type":"Polygon","coordinates":[[[9.8198667,55.0144285],[9.8198662,55.0144049],[9.8199159,55.0144046],[9.8199164,55.0144282],[9.8198667,55.0144285]]]},"properties":{"voltage":"20000","name":""}},{"type":"Feature","geometry":{"type":"Polygon","coordinates":[[[10.6197772,55.0317297],[10.6197897,55.031746],[10.6197609,55.0317532],[10.6197484,55.031737],[10.6197772,55.0317297]]]},"properties":{"voltage":"","name":""}},{"type":"Feature","geometry":{"type":"Polygon","coordinates":[[[11.9083971,55.010155],[11.9084319,55.0101595],[11.9084244,55.0101787],[11.9083896,55.0101742],[11.9083971,55.010155]]]},"properties":{"voltage":"10000;400","name":""}}]}